[{"OBJECT_NAME":"ONEWEB-0247","OBJECT_ID":"2021-045L","EPOCH":"2026-03-09T23:14:44.030688","MEAN_MOTION":13.15547876,"ECCENTRICITY":0.00017951,"INCLINATION":87.8938,"RA_OF_ASC_NODE":279.027,"ARG_OF_PERICENTER":118.3635,"MEAN_ANOMALY":241.7676,"EPHEMERIS_TYPE":0,"CLASSIFICATION_TYPE":"U","NORAD_CAT_ID":48777,"ELEMENT_SET_NO":999,"REV_AT_EPOCH":23136,"BSTAR":6.3084934e-5,"MEAN_MOTION_DOT":3.7e-7,"MEAN_MOTION_DDOT":0},{"OBJECT_NAME":"FENGYUN 1C DEB","OBJECT_ID":"1999-025BVZ","EPOCH":"2026-03-08T12:44:59.216352","MEAN_MOTION":13.40601834,"ECCENTRICITY":0.04431453,"INCLINATION":102.7219,"RA_OF_ASC_NODE":281.7678,"ARG_OF_PERICENTER":133.2496,"MEAN_ANOMALY":230.651,"EPHEMERIS_TYPE":0,"CLASSIFICATION_TYPE":"U","NORAD_CAT_ID":31485,"ELEMENT_SET_NO":999,"REV_AT_EPOCH":91594,"BSTAR":0.0026426623,"MEAN_MOTION_DOT":2.526e-5,"MEAN_MOTION_DDOT":0}]
